NORAD_CAT_ID,OBJECT_NAME,OBJECT_TYPE,EPOCH,MEAN_MOTION,ECCENTRICITY,INCLINATION,RA_OF_ASC_NODE,ARG_OF_PERICENTER,MEAN_ANOMALY,BSTAR,MEAN_MOTION_DOT,MEAN_MOTION_DDOT,TLE_LINE0,TLE_LINE1,TLE_LINE2,SEMIMAJOR_AXIS,PERIOD,APOGEE,PERIGEE,DECAYED
52861.0,STARLINK-4112,PAYLOAD,2024-03-08 05:41:27,15.08845877,0.0001403,53.2172,67.748,96.8666,263.2485,0.00023282,3.42e-05,0.0,0 STARLINK-4112,1 52861U 22062AH  24068.23711848  .00003420  00000-0  23282-3 0  9997,2 52861  53.2172  67.7480 0001403  96.8666 263.2485 15.08845877 95990,6917.862,95.437,540.698,538.757,0.0
52861.0,STARLINK-4112,PAYLOAD,2024-03-08 07:16:50,15.0884912,0.0001364,53.2169,67.4502,94.3905,265.7243,0.00031235,4.688e-05,0.0,0 STARLINK-4112,1 52861U 22062AH  24068.30335773  .00004688  00000-0  31235-3 0  9998,2 52861  53.2169  67.4502 0001364  94.3905 265.7243 15.08849120 95515,6917.853,95.437,540.661,538.774,0.0
52861.0,STARLINK-4112,PAYLOAD,2024-03-08 16:49:08,15.08849431,0.0001269,53.2165,65.6649,86.1897,273.924,0.00045725,6.999e-05,0.0,0 STARLINK-4112,1 52861U 22062AH  24068.70079859  .00006999  00000-0  45725-3 0  9998,2 52861  53.2165  65.6649 0001269  86.1897 273.9240 15.08849431 95575,6917.852,95.437,540.594,538.839,0.0
52861.0,STARLINK-4112,PAYLOAD,2024-03-09 05:32:14,15.08839871,0.000158,53.2168,63.2869,85.6944,274.4229,0.00011462,1.537e-05,0.0,0 STARLINK-4112,1 52861U 22062AH  24069.23072237  .00001537  00000-0  11462-3 0  9994,2 52861  53.2168  63.2869 0001580  85.6944 274.4229 15.08839871 96143,6917.881,95.438,540.839,538.653,0.0
52861.0,STARLINK-4112,PAYLOAD,2024-03-09 07:07:37,15.08844416,0.0001431,53.2166,62.9891,86.9167,273.1988,0.00026023,3.857e-05,0.0,0 STARLINK-4112,1 52861U 22062AH  24069.29696074  .00003857  00000-0  26023-3 0  9997,2 52861  53.2166  62.9891 0001431  86.9167 273.1988 15.08844416 95663,6917.867,95.437,540.722,538.742,0.0
52861.0,STARLINK-4112,PAYLOAD,2024-03-09 16:39:56,15.08847793,0.0001427,53.2167,61.2055,91.1032,269.0124,0.00024763,3.656e-05,0.0,0 STARLINK-4112,1 52861U 22062AH  24069.69439865  .00003656  00000-0  24763-3 0  9990,2 52861  53.2167  61.2055 0001427  91.1032 269.0124 15.08847793 95726,6917.857,95.437,540.709,538.734,0.0
52861.0,STARLINK-4112,PAYLOAD,2024-03-10 05:22:59,15.08866452,0.0001594,53.2173,58.8264,109.13,250.9865,0.00032824,4.944e-05,0.0,0 STARLINK-4112,1 52861U 22062AH  24070.22430398  .00004944  00000-0  32824-3 0  9991,2 52861  53.2173  58.8264 0001594 109.1300 250.9865 15.08866452 96297,6917.8,95.436,540.767,538.562,0.0
52861.0,STARLINK-4112,PAYLOAD,2024-03-10 06:58:22,15.08877105,0.0001499,53.2175,58.5271,94.3093,265.8071,0.00046194,7.079e-05,0.0,0 STARLINK-4112,1 52861U 22062AH  24070.29053827  .00007079  00000-0  46194-3 0  9993,2 52861  53.2175  58.5271 0001499  94.3093 265.8071 15.08877105 96305,6917.767,95.435,540.669,538.595,0.0
52861.0,STARLINK-4112,PAYLOAD,2024-03-10 16:30:42,15.08849374,0.0001741,53.2181,56.7423,82.0352,278.0837,6.2451e-05,7.06e-06,0.0,0 STARLINK-4112,1 52861U 22062AH  24070.68799005  .00000706  00000-0  62451-4 0  9996,2 52861  53.2181  56.7423 0001741  82.0352 278.0837 15.08849374 96362,6917.852,95.437,540.921,538.512,0.0
52861.0,STARLINK-4112,PAYLOAD,2024-03-11 05:13:47,15.0883393,0.0001264,53.2175,54.3628,88.4787,271.635,-6.6472e-05,-1.345e-05,0.0,0 STARLINK-4112,1 52861U 22062AH  24071.21791633 -.00001345  00000-0 -66472-4 0  9994,2 52861  53.2175  54.3628 0001264  88.4787 271.6350 15.08833930 96447,6917.899,95.438,540.638,538.89,0.0
52861.0,STARLINK-4112,PAYLOAD,2024-03-11 16:21:29,15.08846074,0.0001417,53.2169,52.2832,85.4568,274.6586,6.3855e-05,7.29e-06,0.0,0 STARLINK-4112,1 52861U 22062AH  24071.68158979  .00000729  00000-0  63855-4 0  9990,2 52861  53.2169  52.2832 0001417  85.4568 274.6586 15.08846074 96513,6917.862,95.437,540.707,538.747,0.0
52861.0,STARLINK-4112,PAYLOAD,2024-03-12 08:15:20,15.08850177,0.0001487,53.2188,49.3091,104.3366,255.7791,-0.0001949,-3.389e-05,0.0,0 STARLINK-4112,1 52861U 22062AH  24072.34399234 -.00003389  00000-0 -19490-3 0  9997,2 52861  53.2188  49.3091 0001487 104.3366 255.7791 15.08850177 96126,6917.849,95.437,540.743,538.686,0.0
52861.0,STARLINK-4112,PAYLOAD,2024-03-13 04:55:21,15.0884593,0.0001458,53.2189,45.4446,86.9816,273.1343,2.3381e-05,8.4e-07,0.0,0 STARLINK-4112,1 52861U 22062AH  24073.20511367  .00000084  00000-0  23381-4 0  9998,2 52861  53.2189  45.4446 0001458  86.9816 273.1343 15.08845930 96747,6917.862,95.437,540.736,538.719,0.0
52861.0,STARLINK-4112,PAYLOAD,2024-03-13 08:06:07,15.0884736,0.0001454,53.2187,44.8495,87.2031,272.9127,4.7324e-05,4.65e-06,0.0,0 STARLINK-4112,1 52861U 22062AH  24073.33759214  .00000465  00000-0  47324-4 0  9993,2 52861  53.2187  44.8495 0001454  87.2031 272.9127 15.08847360 96275,6917.858,95.437,540.729,538.717,0.0
52861.0,STARLINK-4112,PAYLOAD,2024-03-13 22:24:37,15.088293,0.0001517,53.2186,42.1705,95.2654,264.8511,8.6545e-05,1.089e-05,0.0,0 STARLINK-4112,1 52861U 22062AH  24073.93376552  .00001089  00000-0  86545-4 0  9990,2 52861  53.2186  42.1705 0001517  95.2654 264.8511 15.08829300 96360,6917.913,95.438,540.828,538.729,0.0
52861.0,STARLINK-4112,PAYLOAD,2024-03-14 04:46:09,15.08839175,0.0001336,53.2184,40.9842,94.1426,265.9719,0.0002014,2.919e-05,0.0,0 STARLINK-4112,1 52861U 22062AH  24074.19871968  .00002919  00000-0  20140-3 0  9991,2 52861  53.2184  40.9842 0001336  94.1426 265.9719 15.08839175 96891,6917.883,95.438,540.672,538.824,0.0
52861.0,STARLINK-4112,PAYLOAD,2024-03-14 07:56:55,15.08843653,0.0001313,53.2173,40.388,92.4593,267.655,0.00021497,3.135e-05,0.0,0 STARLINK-4112,1 52861U 22062AH  24074.33119837  .00003135  00000-0  21497-3 0  9994,2 52861  53.2173  40.3880 0001313  92.4593 267.6550 15.08843653 96423,6917.869,95.437,540.643,538.826,0.0
52861.0,STARLINK-4112,PAYLOAD,2024-03-15 03:01:33,15.0883333,0.0001508,53.2183,36.8178,102.0836,258.0325,-2.2811e-05,-6.51e-06,0.0,0 STARLINK-4112,1 52861U 22062AH  24075.12608593 -.00000651  00000-0 -22811-4 0  9998,2 52861  53.2183  36.8178 0001508 102.0836 258.0325 15.08833330 97031,6917.901,95.438,540.809,538.723,0.0
52861.0,STARLINK-4112,PAYLOAD,2024-03-15 06:12:20,15.08835507,0.0001455,53.2188,36.2238,87.4067,272.7091,-1.3067e-05,-4.96e-06,0.0,0 STARLINK-4112,1 52861U 22062AH  24075.25856557 -.00000496  00000-0 -13067-4 0  9997,2 52861  53.2188  36.2238 0001455  87.4067 272.7091 15.08835507 96568,6917.894,95.438,540.766,538.753,0.0
52861.0,STARLINK-4112,PAYLOAD,2024-03-16 04:27:44,15.0884073,0.0001396,53.2185,32.059,87.3293,272.7859,8.8703e-05,1.124e-05,0.0,0 STARLINK-4112,1 52861U 22062AH  24076.18592628  .00001124  00000-0  88703-4 0  9992,2 52861  53.2185  32.0590 0001396  87.3293 272.7859 15.08840730 97190,6917.878,95.438,540.709,538.777,0.0
52861.0,STARLINK-4112,PAYLOAD,2024-03-16 06:03:07,15.08841765,0.0001446,53.2187,31.7623,92.2636,267.8522,0.00010768,1.426e-05,0.0,0 STARLINK-4112,1 52861U 22062AH  24076.25216589  .00001426  00000-0  10768-3 0  9999,2 52861  53.2187  31.7623 0001446  92.2636 267.8522 15.08841765 96715,6917.875,95.437,540.74,538.74,0.0
52861.0,STARLINK-4112,PAYLOAD,2024-03-17 05:53:53,15.08846702,0.00014,53.2186,27.3006,89.5096,270.6057,0.00018153,2.603e-05,0.0,0 STARLINK-4112,1 52861U 22062AH  24077.24576383  .00002603  00000-0  18153-3 0  9994,2 52861  53.2186  27.3006 0001400  89.5096 270.6057 15.08846702 97351,6917.86,95.437,540.693,538.756,0.0
52861.0,STARLINK-4112,PAYLOAD,2024-03-18 02:33:54,15.08847292,0.0001637,53.2193,23.4351,80.3637,279.754,0.00013354,1.838e-05,0.0,0 STARLINK-4112,1 52861U 22062AH  24078.10688306  .00001838  00000-0  13354-3 0  9996,2 52861  53.2193  23.4351 0001637  80.3637 279.7540 15.08847292 96992,6917.858,95.437,540.856,538.591,0.0
52861.0,STARLINK-4112,PAYLOAD,2024-03-18 20:03:09,15.08842147,0.0001488,53.2177,20.1703,84.7336,275.3826,8.0226e-05,9.89e-06,0.0,0 STARLINK-4112,1 52861U 22062AH  24078.83552498  .00000989  00000-0  80226-4 0  9997,2 52861  53.2177  20.1703 0001488  84.7336 275.3826 15.08842147 97597,6917.874,95.437,540.768,538.709,0.0
52861.0,STARLINK-4112,PAYLOAD,2024-03-19 02:24:41,15.08847834,0.0001304,53.2177,18.9799,99.2553,260.8587,2.2369e-05,6.8e-07,0.0,0 STARLINK-4112,1 52861U 22062AH  24079.10048177  .00000068  00000-0  22369-4 0  9994,2 52861  53.2177  18.9799 0001304  99.2553 260.8587 15.08847834 97148,6917.856,95.437,540.624,538.819,0.0
52861.0,STARLINK-4112,PAYLOAD,2024-03-20 00:40:05,15.08851924,0.0001351,53.2182,14.8162,92.8296,267.2851,9.1873e-05,1.175e-05,0.0,0 STARLINK-4112,1 52861U 22062AH  24080.02783628  .00001175  00000-0  91873-4 0  9990,2 52861  53.2182  14.8162 0001351  92.8296 267.2851 15.08851924 97777,6917.844,95.437,540.644,538.774,0.0
52861.0,STARLINK-4112,PAYLOAD,2024-03-20 05:26:14,15.08857488,0.0001418,53.2181,13.9233,95.332,264.7834,8.4895e-05,1.064e-05,0.0,0 STARLINK-4112,1 52861U 22062AH  24080.22655230  .00001064  00000-0  84895-4 0  9992,2 52861  53.2181  13.9233 0001418  95.3320 264.7834 15.08857488 97319,6917.827,95.436,540.673,538.711,0.0
52861.0,STARLINK-4112,PAYLOAD,2024-03-20 22:55:29,15.08837953,0.0001976,53.2172,10.6453,129.5427,230.574,-8.4304e-05,-1.63e-05,0.0,0 STARLINK-4112,1 52861U 22062AH  24080.95520620 -.00001630  00000-0 -84304-4 0  9992,2 52861  53.2172  10.6453 0001976 129.5427 230.5740 15.08837953 97428,6917.887,95.438,541.119,538.385,0.0
52861.0,STARLINK-4112,PAYLOAD,2024-03-21 05:17:02,15.0883512,0.0001417,53.2186,9.4617,97.4325,262.6828,-4.5235e-05,-1.008e-05,0.0,0 STARLINK-4112,1 52861U 22062AH  24081.22016717 -.00001008  00000-0 -45235-4 0  9999,2 52861  53.2186   9.4617 0001417  97.4325 262.6828 15.08835120 97956,6917.895,95.438,540.741,538.78,0.0
52861.0,STARLINK-4112,PAYLOAD,2024-03-21 11:38:34,15.08840728,0.0001396,53.219,8.2738,95.143,264.9721,6.4194e-05,7.34e-06,0.0,0 STARLINK-4112,1 52861U 22062AH  24081.48512537  .00000734  00000-0  64194-4 0  9996,2 52861  53.2190   8.2738 0001396  95.1430 264.9721 15.08840728 97508,6917.878,95.438,540.709,538.777,0.0
